OBJECT_NAME,OBJECT_ID,EPOCH,MEAN_MOTION,ECCENTRICITY,INCLINATION,RA_OF_ASC_NODE,ARG_OF_PERICENTER,MEAN_ANOMALY,EPHEMERIS_TYPE,CLASSIFICATION_TYPE,NORAD_CAT_ID,ELEMENT_SET_NO,REV_AT_EPOCH,BSTAR,MEAN_MOTION_DOT,MEAN_MOTION_DDOT
STARLINK-30165,2023-107A,2026-07-06T22:43:14.035008,15.27587264,.00026621,43.0033,22.8034,257.4472,102.6082,0,U,57457,999,16337,-.49410282E-3,-.13838E-3,0
STARLINK-30140,2023-107B,2026-07-07T12:16:38.221536,15.27570403,.00020097,43.0025,22.7094,138.0879,222.0126,0,U,57458,999,16343,.94936208E-4,.235E-4,0
STARLINK-30077,2023-107D,2026-07-06T23:16:21.038880,15.27575549,.00014704,43.0071,22.1237,336.9802,23.0984,0,U,57460,999,16339,-.23300467E-4,-.903E-5,0
STARLINK-30229,2023-107E,2026-07-06T23:26:14.004672,15.27576904,.00016231,43.0043,29.8415,273.7976,86.2691,0,U,57461,999,16330,.24279977E-3,.6424E-4,0
STARLINK-30088,2023-107F,2026-07-06T22:50:39.184224,15.27557886,.00008946,43.0001,22.8402,260.3289,99.7462,0,U,57462,999,16338,.64438902E-4,.1511E-4,0
STARLINK-30116,2023-107J,2026-07-06T22:35:51.252288,15.27560491,.00009625,43.0041,22.7599,254.2026,105.8719,0,U,57465,999,16338,.57442951E-4,.1318E-4,0
STARLINK-30092,2023-107L,2026-07-07T17:31:15.083616,15.27584830,.0002706,43.0069,18.3557,282.8880,77.1670,0,U,57467,999,16350,.50785E-4,.1135E-4,0
STARLINK-30039,2023-107M,2026-07-06T22:46:57.078336,15.27570469,.00009962,43.0033,22.8176,302.8270,57.2486,0,U,57468,999,16338,.631716E-6,-.245E-5,0
STARLINK-30171,2023-107N,2026-07-06T22:14:47.354208,15.27566960,.00015471,43.0033,26.0632,272.7606,87.3069,0,U,57469,999,16334,.23910866E-3,.6321E-4,0
STARLINK-30186,2023-107P,2026-07-07T20:00:04.000032,15.48708076,.0001535,43.0007,21.8855,291.9308,315.6389,0,U,57470,999,551,.24283E-2,.135342E-2,0
STARLINK-30204,2023-107R,2026-07-06T22:21:02.609280,15.27569547,.00008298,43.0048,22.6849,288.8518,71.2244,0,U,57472,999,16338,-.12983552E-4,-.619E-5,0
STARLINK-30155,2023-107U,2026-07-06T23:18:10.096416,15.27580140,.00016568,43.0018,22.1218,271.0015,89.0647,0,U,57475,999,16339,.1308162E-4,.98E-6,0
STARLINK-30161,2023-107V,2026-07-06T23:23:43.746432,15.27576597,.0001517,43.0042,22.1486,264.2773,95.7906,0,U,57476,999,16339,.1444188E-4,.135E-5,0
STARLINK-30176,2023-107W,2026-07-07T12:02:30.605568,15.27642561,.00019047,43.0034,19.2205,217.7065,142.3654,0,U,57477,999,16347,.80479217E-3,.21993E-3,0
STARLINK-30154,2023-113A,2026-07-06T23:55:22.135872,15.27545645,.00014231,43.0016,62.1069,249.5799,110.4899,0,U,57495,999,16176,.68116395E-3,.1851E-3,0
STARLINK-30145,2023-113B,2026-07-07T16:00:05.000256,15.27580326,.0001649,43.0005,58.5185,267.8256,103.0255,0,U,57496,999,547,.48941E-3,.1323E-3,0
STARLINK-30226,2023-113C,2026-07-07T00:21:16.757856,15.27578169,.00011889,42.9984,62.2663,271.1270,88.9445,0,U,57497,999,16182,.982454E-3,.2687E-3,0
STARLINK-30203,2023-113D,2026-07-06T23:47:55.561920,15.27582604,.00007244,43.0021,62.0824,286.0245,74.0527,0,U,57498,999,16194,.24241813E-3,.6415E-4,0
STARLINK-30169,2023-113E,2026-07-06T23:06:24.044256,15.27578491,.00010398,42.9997,48.2965,271.7412,88.3320,0,U,57499,999,16192,.1740263E-3,.453E-4,0
STARLINK-30164,2023-113F,2026-07-07T17:29:32.056800,15.27726272,.000246,43.0020,58.1460,252.6027,107.4556,0,U,57500,999,16203,-.856E-3,-.23849E-3,0
STARLINK-30072,2023-113G,2026-07-07T00:45:18.522432,15.27584126,.00013275,43.0037,62.3612,49.0018,311.0948,0,U,57501,999,16181,.1149816E-5,-.231E-5,0
STARLINK-30230,2023-113J,2026-07-07T17:25:50.299104,15.27591318,.0001503,43.0003,58.1124,299.3793,60.6909,0,U,57503,999,16192,.17612E-3,.4589E-4,0
STARLINK-30213,2023-113K,2026-07-06T23:22:14.563488,15.27594028,.0000656,43.0052,62.7911,299.9824,60.0963,0,U,57504,999,16191,-.13614483E-4,-.637E-5,0
STARLINK-30227,2023-113L,2026-07-07T01:15:49.381632,15.27281659,.00126464,42.9953,52.9411,235.9951,123.9699,0,U,57505,999,16203,.13086054E-2,.35672E-3,0
STARLINK-30212,2023-113M,2026-07-07T01:01:57.628704,15.27574608,.00011366,43.0041,62.4509,271.3593,88.7129,0,U,57506,999,16176,.34940974E-4,.699E-5,0
STARLINK-30219,2023-113N,2026-07-06T22:59:03.183936,15.31792724,.00037125,43.0010,60.9470,239.6702,120.3784,0,U,57507,999,16193,.76690539E-3,.23844E-3,0
STARLINK-30074,2023-113P,2026-07-07T00:30:29.615040,15.27585057,.00016297,43.0037,62.2961,287.8126,72.2548,0,U,57508,999,16171,.21127934E-4,.319E-5,0
STARLINK-30082,2023-113Q,2026-07-07T17:16:37.271712,15.27576754,.0000545,43.0006,58.0843,276.8227,83.2563,0,U,57509,999,16203,.80627E-4,.1957E-4,0
STARLINK-30153,2023-113R,2026-07-07T01:09:09.563904,15.27575791,.00013048,43.0024,61.6569,268.3564,91.7139,0,U,57510,999,16182,.60277501E-4,.1397E-4,0
STARLINK-30147,2023-113S,2026-07-07T01:23:56.093568,15.27595436,.00007489,43.0000,61.7225,255.6821,104.3947,0,U,57511,999,16193,.92003339E-4,.2272E-4,0
