STARLINK-30165          
1 57457U 23107A   26187.94669022 -.00013838  00000+0 -49410-3 0  9998
2 57457  43.0033  22.8034 0002662 257.4472 102.6082 15.27587264163375
STARLINK-30140          
1 57458U 23107B   26188.51155349  .00002350  00000+0  94936-4 0  9994
2 57458  43.0025  22.7094 0002009 138.0879 222.0126 15.27570403163432
STARLINK-30077          
1 57460U 23107D   26187.96968795 -.00000903  00000+0 -23300-4 0  9993
2 57460  43.0071  22.1237 0001470 336.9802  23.0984 15.27575549163397
STARLINK-30229          
1 57461U 23107E   26187.97655098  .00006424  00000+0  24280-3 0  9993
2 57461  43.0043  29.8415 0001623 273.7976  86.2691 15.27576904163302
STARLINK-30088          
1 57462U 23107F   26187.95184241  .00001511  00000+0  64439-4 0  9992
2 57462  43.0001  22.8402 0000894 260.3289  99.7462 15.27557886163385
STARLINK-30116          
1 57465U 23107J   26187.94156542  .00001318  00000+0  57443-4 0  9999
2 57465  43.0041  22.7599 0000962 254.2026 105.8719 15.27560491163385
STARLINK-30092          
1 57467U 23107L   26188.73003569  .00001135  00000+0  50785-4 0  9998
2 57467  43.0069  18.3557 0002706 282.8880  77.1670 15.27584830163509
STARLINK-30039          
1 57468U 23107M   26187.94927174 -.00000245  00000+0  63172-6 0  9996
2 57468  43.0033  22.8176 0000996 302.8270  57.2486 15.27570469163386
STARLINK-30171          
1 57469U 23107N   26187.92693697  .00006321  00000+0  23911-3 0  9999
2 57469  43.0033  26.0632 0001547 272.7606  87.3069 15.27566960163349
STARLINK-30186          
1 57470U 23107P   26188.83337963  .00135342  00000+0  24283-2 0  9991
2 57470  43.0007  21.8855 0001535 291.9308 315.6389 15.48708076  5516
STARLINK-30204          
1 57472U 23107R   26187.93128020 -.00000619  00000+0 -12984-4 0  9992
2 57472  43.0048  22.6849 0000829 288.8518  71.2244 15.27569547163388
STARLINK-30155          
1 57475U 23107U   26187.97095019  .00000098  00000+0  13082-4 0  9999
2 57475  43.0018  22.1218 0001656 271.0015  89.0647 15.27580140163395
STARLINK-30161          
1 57476U 23107V   26187.97481188  .00000135  00000+0  14442-4 0  9999
2 57476  43.0042  22.1486 0001517 264.2773  95.7906 15.27576597163394
STARLINK-30176          
1 57477U 23107W   26188.50174312  .00021993  00000+0  80479-3 0  9995
2 57477  43.0034  19.2205 0001904 217.7065 142.3654 15.27642561163472
STARLINK-30154          
1 57495U 23113A   26187.99678398  .00018510  00000+0  68116-3 0  9992
2 57495  43.0016  62.1069 0001423 249.5799 110.4899 15.27545645161762
STARLINK-30145          
1 57496U 23113B   26188.66672454  .00013230  00000+0  48941-3 0  9993
2 57496  43.0005  58.5185 0001649 267.8256 103.0255 15.27580326  5474
STARLINK-30226          
1 57497U 23113C   26188.01477729  .00026870  00000+0  98245-3 0  9997
2 57497  42.9984  62.2663 0001188 271.1270  88.9445 15.27578169161820
STARLINK-30203          
1 57498U 23113D   26187.99161530  .00006415  00000+0  24242-3 0  9993
2 57498  43.0021  62.0824 0000724 286.0245  74.0527 15.27582604161943
STARLINK-30169          
1 57499U 23113E   26187.96277829  .00004530  00000+0  17403-3 0  9997
2 57499  42.9997  48.2965 0001039 271.7412  88.3320 15.27578491161929
STARLINK-30164          
1 57500U 23113F   26188.72884325 -.00023849  00000+0 -85600-3 0  9990
2 57500  43.0020  58.1460 0002460 252.6027 107.4556 15.27726272162039
STARLINK-30072          
1 57501U 23113G   26188.03146438 -.00000231  00000+0  11498-5 0  9996
2 57501  43.0037  62.3612 0001327  49.0018 311.0948 15.27584126161816
STARLINK-30230          
1 57503U 23113J   26188.72627661  .00004589  00000+0  17612-3 0  9997
2 57503  43.0003  58.1124 0001503 299.3793  60.6909 15.27591318161925
STARLINK-30213          
1 57504U 23113K   26187.97377967 -.00000637  00000+0 -13614-4 0  9996
2 57504  43.0052  62.7911 0000656 299.9824  60.0963 15.27594028161918
STARLINK-30227          
1 57505U 23113L   26188.05265488  .00035672  00000+0  13086-2 0  9997
2 57505  42.9953  52.9411 0012646 235.9951 123.9699 15.27281659162038
STARLINK-30212          
1 57506U 23113M   26188.04302811  .00000699  00000+0  34941-4 0  9995
2 57506  43.0041  62.4509 0001136 271.3593  88.7129 15.27574608161765
STARLINK-30219          
1 57507U 23113N   26187.95767574  .00023844  00000+0  76691-3 0  9990
2 57507  43.0010  60.9470 0003712 239.6702 120.3784 15.31792724161938
STARLINK-30074          
1 57508U 23113P   26188.02117610  .00000319  00000+0  21128-4 0  9998
2 57508  43.0037  62.2961 0001629 287.8126  72.2548 15.27585057161711
STARLINK-30082          
1 57509U 23113Q   26188.71987583  .00001957  00000+0  80627-4 0  9997
2 57509  43.0006  58.0843 0000545 276.8227  83.2563 15.27576754162035
STARLINK-30153          
1 57510U 23113R   26188.04802736  .00001397  00000+0  60278-4 0  9999
2 57510  43.0024  61.6569 0001304 268.3564  91.7139 15.27575791161825
STARLINK-30147          
1 57511U 23113S   26188.05828812  .00002272  00000+0  92003-4 0  9998
2 57511  43.0000  61.7225 0000748 255.6821 104.3947 15.27595436161934
